NORAD_CAT_ID,OBJECT_NAME,OBJECT_TYPE,EPOCH,MEAN_MOTION,ECCENTRICITY,INCLINATION,RA_OF_ASC_NODE,ARG_OF_PERICENTER,MEAN_ANOMALY,BSTAR,MEAN_MOTION_DOT,MEAN_MOTION_DDOT,TLE_LINE0,TLE_LINE1,TLE_LINE2,SEMIMAJOR_AXIS,PERIOD,APOGEE,PERIGEE,DECAYED
51754.0,STARLINK-3457,PAYLOAD,2022-06-15 22:00:00,15.08826998,0.0001921,53.2169,306.8474,47.0636,219.9949,0.0014972999999999,0.00023614,0.0,0 STARLINK-3457,1 51754U 22016AS  22166.91667824  .00023614  00000-0  14973-2 0  9995,2 51754  53.2169 306.8474 0001921  47.0636 219.9949 15.08826998  1304,6917.92,95.438,541.114,538.456,0.0
51754.0,STARLINK-3457,PAYLOAD,2022-06-16 02:00:01,15.08852734,0.0001838,53.2172,306.0981,50.4459,42.4092,-0.00063387,-0.00010366,0.0,0 STARLINK-3457,1 51754U 22016AS  22167.08334491 -.00010366  00000-0 -63387-3 0  9991,2 51754  53.2172 306.0981 0001838  50.4459  42.4092 15.08852734  1306,6917.840999999999,95.437,540.9780000000002,538.435,0.0
51754.0,STARLINK-3457,PAYLOAD,2022-06-19 14:00:01,15.08847309,0.0001706,53.2158,290.3882,46.3888,348.1415,-0.00061433,-0.00010054,0.0,0 STARLINK-3457,1 51754U 22016AS  22170.58334491 -.00010054  00000-0 -61433-3 0  9994,2 51754  53.2158 290.3882 0001706  46.3888 348.1415 15.08847309  1306,6917.858,95.437,540.903,538.543,0.0
51754.0,STARLINK-3457,PAYLOAD,2022-06-19 20:00:01,15.08847381,0.0001749,53.2154,289.2661,43.3552,269.8746,0.00016183,2.289e-05,0.0,0 STARLINK-3457,1 51754U 22016AS  22170.83334491  .00002289  00000-0  16183-3 0  9993,2 51754  53.2154 289.2661 0001749  43.3552 269.8746 15.08847381 19671,6917.858,95.437,540.933,538.513,0.0
51754.0,STARLINK-3457,PAYLOAD,2022-06-19 22:00:00,15.08871986,0.0001754,53.2153,288.8915,44.3548,1.7699,-0.0034626999999999,-0.00055025,0.0,0 STARLINK-3457,1 51754U 22016AS  22170.91667824 -.00055025  00000-0 -34627-2 0  9991,2 51754  53.2153 288.8915 0001754  44.3548   1.7699 15.08871986  1308,6917.783,95.436,540.861,538.434,0.0
51754.0,STARLINK-3457,PAYLOAD,2022-06-20 14:00:01,15.08848974,0.0001804,53.2152,285.899,48.4384,20.8807,-0.0016052,-0.00025751,0.0,0 STARLINK-3457,1 51754U 22016AS  22171.58334491 -.00025751  00000-0 -16052-2 0  9991,2 51754  53.2152 285.8990 0001804  48.4384  20.8807 15.08848974 19792,6917.853,95.437,540.966,538.47,0.0
51754.0,STARLINK-3457,PAYLOAD,2022-06-20 22:00:00,15.08849272,0.0001751999999999,53.215,284.4021,44.3489,36.5679,-0.0022909,-0.00036573,0.0,0 STARLINK-3457,1 51754U 22016AS  22171.91667824 -.00036573  00000-0 -22909-2 0  9999,2 51754  53.2150 284.4021 0001752  44.3489  36.5679 15.08849272  1304,6917.852,95.437,540.929,538.505,0.0
51754.0,STARLINK-3457,PAYLOAD,2022-06-21 06:00:00,15.08817041,0.0001617,53.2152,282.9041,49.8806,42.6466,0.0031149,0.00049604,0.0,0 STARLINK-3457,1 51754U 22016AS  22172.25001157  .00049604  00000-0  31149-2 0  9991,2 51754  53.2152 282.9041 0001617  49.8806  42.6466 15.08817041 19898,6917.951,95.439,540.934,538.697,0.0
51754.0,STARLINK-3457,PAYLOAD,2022-06-21 14:00:01,15.08845206,0.0001778,53.2152,281.4095,45.0393,59.0696,-0.00054389,-8.935e-05,0.0,0 STARLINK-3457,1 51754U 22016AS  22172.58334491 -.00008935  00000-0 -54389-3 0  9993,2 51754  53.2152 281.4095 0001778  45.0393  59.0696 15.08845206  1306,6917.864000000001,95.437,540.9590000000002,538.499,0.0
51754.0,STARLINK-3457,PAYLOAD,2022-06-21 22:00:00,15.08861196,0.000172,53.2151,279.9125,41.4853,74.2176,-0.003382,-0.00053743,0.0,0 STARLINK-3457,1 51754U 22016AS  22172.91667824 -.00053743  00000-0 -33820-2 0  9992,2 51754  53.2151 279.9125 0001720  41.4853  74.2176 15.08861196  1307,6917.816,95.436,540.87,538.491,0.0
51754.0,STARLINK-3457,PAYLOAD,2022-06-22 00:00:02,15.08846704,0.0001644,53.2153,279.5378,42.6005,166.0698,-0.002127,-0.00033986,0.0,0 STARLINK-3457,1 51754U 22016AS  22173.00002315 -.00033986  00000-0 -21270-2 0  9994,2 51754  53.2153 279.5378 0001644  42.6005 166.0698 15.08846704 20007,6917.86,95.437,540.862,538.5880000000002,0.0
51754.0,STARLINK-3457,PAYLOAD,2022-06-22 14:00:01,15.08842169,0.00018,53.2156,276.9201,42.4974,96.3916,-7.1927e-05,-1.433e-05,0.0,0 STARLINK-3457,1 51754U 22016AS  22173.58334491 -.00001433  00000-0 -71927-4 0  9998,2 51754  53.2156 276.9201 0001800  42.4974  96.3916 15.08842169  1304,6917.874,95.437,540.984,538.494,0.0
51754.0,STARLINK-3457,PAYLOAD,2022-06-22 16:00:00,15.08830854,0.0001853,53.2158,276.5463,41.4094,190.3822,0.0016334,0.00025797,0.0,0 STARLINK-3457,1 51754U 22016AS  22173.66667824  .00025797  00000-0  16334-2 0  9992,2 51754  53.2158 276.5463 0001853  41.4094 190.3822 15.08830854 20100,6917.908,95.438,541.055,538.491,0.0
51754.0,STARLINK-3457,PAYLOAD,2022-06-22 22:00:00,15.0887021,0.0001805,53.2156,275.423,42.3654,108.1195,-0.0038054,-0.00060394,0.0,0 STARLINK-3457,1 51754U 22016AS  22173.91667824 -.00060394  00000-0 -38054-2 0  9997,2 51754  53.2156 275.4230 0001805  42.3654 108.1195 15.08870210  1308,6917.788000000001,95.436,540.9019999999998,538.404,0.0
51754.0,STARLINK-3457,PAYLOAD,2022-06-23 06:00:00,15.08825992,0.0001737,53.2161,273.9253,49.5607,112.5276,0.0022381,0.00035498,0.0,0 STARLINK-3457,1 51754U 22016AS  22174.25001157  .00035498  00000-0  22381-2 0  9997,2 51754  53.2161 273.9253 0001737  49.5607 112.5276 15.08825992 20197,6917.9230000000025,95.438,540.99,538.587,0.0
51754.0,STARLINK-3457,PAYLOAD,2022-06-23 14:00:01,15.08830707,0.000194,53.2161,272.4308,45.0729,128.5686,0.00037436,5.673e-05,0.0,0 STARLINK-3457,1 51754U 22016AS  22174.58334491  .00005673  00000-0  37436-3 0  9993,2 51754  53.2161 272.4308 0001940  45.0729 128.5686 15.08830707 20242,6917.909000000002,95.438,541.116,538.432,0.0
51754.0,STARLINK-3457,PAYLOAD,2022-06-23 22:00:00,15.08860276,0.0001872,53.2161,270.9335,44.8425,140.3853,-0.0015545,-0.00024957,0.0,0 STARLINK-3457,1 51754U 22016AS  22174.91667824 -.00024957  00000-0 -15545-2 0  9993,2 51754  53.2161 270.9335 0001872  44.8425 140.3853 15.08860276  1307,6917.818,95.436,540.9780000000002,538.388,0.0
51754.0,STARLINK-3457,PAYLOAD,2022-06-24 14:00:01,15.08832908,0.0001881,53.2165,267.9415,42.6523,165.7952,-0.00047884,-7.899e-05,0.0,0 STARLINK-3457,1 51754U 22016AS  22175.58334491 -.00007899  00000-0 -47884-3 0  9996,2 51754  53.2165 267.9415 0001881  42.6523 165.7952 15.08832908  1303,6917.901999999999,95.438,541.068,538.466,0.0
51754.0,STARLINK-3457,PAYLOAD,2022-06-24 22:00:01,15.08849032,0.0001757,53.2163,266.4442,42.7292,177.3597,-0.0019374,-0.00030997,0.0,0 STARLINK-3457,1 51754U 22016AS  22175.91668981 -.00030997  00000-0 -19374-2 0  9994,2 51754  53.2163 266.4442 0001757  42.7292 177.3597 15.08849032 20447,6917.853,95.437,540.933,538.502,0.0
51754.0,STARLINK-3457,PAYLOAD,2022-06-25 14:00:01,15.08835846,0.0001858,53.2165,263.4526,42.3826,200.8364,0.00095942,0.00015012,0.0,0 STARLINK-3457,1 51754U 22016AS  22176.58334491  .00015012  00000-0  95942-3 0  9999,2 51754  53.2165 263.4526 0001858  42.3826 200.8364 15.08835846  1306,6917.893,95.438,541.043,538.4730000000002,0.0
51754.0,STARLINK-3457,PAYLOAD,2022-06-25 16:00:00,15.08825067,0.0001863,53.2165,263.0787,41.4857,294.6357,0.0027748,0.00044132,0.0,0 STARLINK-3457,1 51754U 22016AS  22176.66667824  .00044132  00000-0  27748-2 0  9990,2 51754  53.2165 263.0787 0001863  41.4857 294.6357 15.08825067 20556,6917.926,95.438,541.08,538.502,0.0
51754.0,STARLINK-3457,PAYLOAD,2022-06-25 22:00:00,15.08869381,0.0001747,53.2162,261.9551,43.4028,211.4161,-0.0017429,-0.00027942,0.0,0 STARLINK-3457,1 51754U 22016AS  22176.91667824 -.00027942  00000-0 -17429-2 0  9995,2 51754  53.2162 261.9551 0001747  43.4028 211.4161 15.08869381  1301,6917.791,95.436,540.864,538.447,0.0
51754.0,STARLINK-3457,PAYLOAD,2022-06-26 06:00:00,15.0887191,0.0001693,53.2164,260.4583,50.0863,216.346,-0.0021672,-0.00034644,0.0,0 STARLINK-3457,1 51754U 22016AS  22177.25001157 -.00034644  00000-0 -21672-2 0  9996,2 51754  53.2164 260.4583 0001693  50.0863 216.3460 15.08871910 20648,6917.783,95.436,540.819,538.477,0.0
51754.0,STARLINK-3457,PAYLOAD,2022-06-26 14:00:01,15.08838382,0.0001914,53.2161,258.9637,44.9902,233.1296,0.0001254,1.708e-05,0.0,0 STARLINK-3457,1 51754U 22016AS  22177.58335648  .00001708  00000-0  12540-3 0  9995,2 51754  53.2161 258.9637 0001914  44.9902 233.1296 15.08838382  1301,6917.885,95.438,541.0740000000002,538.4259999999998,0.0
51754.0,STARLINK-3457,PAYLOAD,2022-06-26 22:00:00,15.08843955,0.0001749,53.2157,257.4661,44.7444,244.9094,-0.0023856,-0.00038059,0.0,0 STARLINK-3457,1 51754U 22016AS  22177.91667824 -.00038059  00000-0 -23856-2 0  9998,2 51754  53.2157 257.4661 0001749  44.7444 244.9094 15.08843955  1300,6917.868,95.437,540.943,538.523,0.0
51754.0,STARLINK-3457,PAYLOAD,2022-06-27 14:00:01,15.08814376,0.0001867,53.2156,254.475,43.3996,269.3804,0.0017186,0.0002715,0.0,0 STARLINK-3457,1 51754U 22016AS  22178.58334491  .00027150  00000-0  17186-2 0  9990,2 51754  53.2156 254.4750 0001867  43.3996 269.3804 15.08814376 20848,6917.959,95.439,541.115,538.5319999999998,0.0
51754.0,STARLINK-3457,PAYLOAD,2022-06-27 22:00:00,15.088455800000002,0.0001751,53.2152,252.9773,44.6371,279.7223,-0.0013048,-0.00020997,0.0,0 STARLINK-3457,1 51754U 22016AS  22178.91667824 -.00020997  00000-0 -13048-2 0  9993,2 51754  53.2152 252.9773 0001751  44.6371 279.7223 15.08845580  1306,6917.863,95.437,540.94,538.5169999999998,0.0
51754.0,STARLINK-3457,PAYLOAD,2022-06-28 14:00:01,15.08831301,0.0001885,53.2151,249.9861,42.4898,305.0522,0.00027186,4.04e-05,0.0,0 STARLINK-3457,1 51754U 22016AS  22179.58334491  .00004040  00000-0  27186-3 0  9996,2 51754  53.2151 249.9861 0001885  42.4898 305.0522 15.08831301 20994,6917.906999999997,95.438,541.076,538.4680000000002,0.0
51754.0,STARLINK-3457,PAYLOAD,2022-06-28 22:00:00,15.0882982,0.0001727,53.2149,248.4882,42.4468,316.6878,-0.001828,-0.00029255,0.0,0 STARLINK-3457,1 51754U 22016AS  22179.91667824 -.00029255  00000-0 -18280-2 0  9993,2 51754  53.2149 248.4882 0001727  42.4468 316.6878 15.08829820  1305,6917.9119999999975,95.438,540.971,538.582,0.0
